<?xml version="1.0" encoding="UTF-8"?>
<ndm xmlns:xsi="http://www.w3.org/2001/XMLSchema-instance" xsi:noNamespaceSchemaLocation="https://sanaregistry.org/r/ndmxml_unqualified/ndmxml-2.0.0-master-2.0.xsd">
<omm id="CCSDS_OMM_VERS" version="2.0">
<header><CREATION_DATE/><ORIGINATOR/></header><body><segment><metadata><OBJECT_NAME>IRIDIUM 36 [-]</OBJECT_NAME><OBJECT_ID>1997-056C</OBJECT_ID><CENTER_NAME>EARTH</CENTER_NAME><REF_FRAME>TEME</REF_FRAME><TIME_SYSTEM>UTC</TIME_SYSTEM><MEAN_ELEMENT_THEORY>SGP4</MEAN_ELEMENT_THEORY></metadata><data><meanElements><EPOCH>2023-11-05T20:23:54.625056</EPOCH><MEAN_MOTION>14.36494065</MEAN_MOTION><ECCENTRICITY>.0002248</ECCENTRICITY><INCLINATION>86.3979</INCLINATION><RA_OF_ASC_NODE>60.4215</RA_OF_ASC_NODE><ARG_OF_PERICENTER>94.7813</ARG_OF_PERICENTER><MEAN_ANOMALY>265.3641</MEAN_ANOMALY></meanElements><tleParameters><EPHEMERIS_TYPE>0</EPHEMERIS_TYPE><CLASSIFICATION_TYPE>U</CLASSIFICATION_TYPE><NORAD_CAT_ID>24967</NORAD_CAT_ID><ELEMENT_SET_NO>999</ELEMENT_SET_NO><REV_AT_EPOCH>36758</REV_AT_EPOCH><BSTAR>.51886E-3</BSTAR><MEAN_MOTION_DOT>.1541E-4</MEAN_MOTION_DOT><MEAN_MOTION_DDOT>0</MEAN_MOTION_DDOT></tleParameters></data></segment></body></omm>
<omm id="CCSDS_OMM_VERS" version="2.0">
<header><CREATION_DATE/><ORIGINATOR/></header><body><segment><metadata><OBJECT_NAME>IRIDIUM 39 [-]</OBJECT_NAME><OBJECT_ID>1997-069D</OBJECT_ID><CENTER_NAME>EARTH</CENTER_NAME><REF_FRAME>TEME</REF_FRAME><TIME_SYSTEM>UTC</TIME_SYSTEM><MEAN_ELEMENT_THEORY>SGP4</MEAN_ELEMENT_THEORY></metadata><data><meanElements><EPOCH>2023-11-05T22:16:49.955808</EPOCH><MEAN_MOTION>14.47472771</MEAN_MOTION><ECCENTRICITY>.0020369</ECCENTRICITY><INCLINATION>86.3879</INCLINATION><RA_OF_ASC_NODE>103.5136</RA_OF_ASC_NODE><ARG_OF_PERICENTER>110.2286</ARG_OF_PERICENTER><MEAN_ANOMALY>250.1110</MEAN_ANOMALY></meanElements><tleParameters><EPHEMERIS_TYPE>0</EPHEMERIS_TYPE><CLASSIFICATION_TYPE>U</CLASSIFICATION_TYPE><NORAD_CAT_ID>25042</NORAD_CAT_ID><ELEMENT_SET_NO>999</ELEMENT_SET_NO><REV_AT_EPOCH>36367</REV_AT_EPOCH><BSTAR>.60551E-3</BSTAR><MEAN_MOTION_DOT>.2248E-4</MEAN_MOTION_DOT><MEAN_MOTION_DDOT>0</MEAN_MOTION_DDOT></tleParameters></data></segment></body></omm>
<omm id="CCSDS_OMM_VERS" version="2.0">
<header><CREATION_DATE/><ORIGINATOR/></header><body><segment><metadata><OBJECT_NAME>IRIDIUM 38 [-]</OBJECT_NAME><OBJECT_ID>1997-069E</OBJECT_ID><CENTER_NAME>EARTH</CENTER_NAME><REF_FRAME>TEME</REF_FRAME><TIME_SYSTEM>UTC</TIME_SYSTEM><MEAN_ELEMENT_THEORY>SGP4</MEAN_ELEMENT_THEORY></metadata><data><meanElements><EPOCH>2023-11-05T23:57:20.844288</EPOCH><MEAN_MOTION>14.36949530</MEAN_MOTION><ECCENTRICITY>.0000785</ECCENTRICITY><INCLINATION>86.3923</INCLINATION><RA_OF_ASC_NODE>120.8658</RA_OF_ASC_NODE><ARG_OF_PERICENTER>170.9379</ARG_OF_PERICENTER><MEAN_ANOMALY>189.1832</MEAN_ANOMALY></meanElements><tleParameters><EPHEMERIS_TYPE>0</EPHEMERIS_TYPE><CLASSIFICATION_TYPE>U</CLASSIFICATION_TYPE><NORAD_CAT_ID>25043</NORAD_CAT_ID><ELEMENT_SET_NO>999</ELEMENT_SET_NO><REV_AT_EPOCH>36157</REV_AT_EPOCH><BSTAR>.46057E-3</BSTAR><MEAN_MOTION_DOT>.1382E-4</MEAN_MOTION_DOT><MEAN_MOTION_DDOT>0</MEAN_MOTION_DDOT></tleParameters></data></segment></body></omm>
<omm id="CCSDS_OMM_VERS" version="2.0">
<header><CREATION_DATE/><ORIGINATOR/></header><body><segment><metadata><OBJECT_NAME>IRIDIUM 42 [-]</OBJECT_NAME><OBJECT_ID>1997-077A</OBJECT_ID><CENTER_NAME>EARTH</CENTER_NAME><REF_FRAME>TEME</REF_FRAME><TIME_SYSTEM>UTC</TIME_SYSTEM><MEAN_ELEMENT_THEORY>SGP4</MEAN_ELEMENT_THEORY></metadata><data><meanElements><EPOCH>2023-11-05T22:12:37.535616</EPOCH><MEAN_MOTION>14.35259053</MEAN_MOTION><ECCENTRICITY>.0001515</ECCENTRICITY><INCLINATION>86.3932</INCLINATION><RA_OF_ASC_NODE>126.3487</RA_OF_ASC_NODE><ARG_OF_PERICENTER>99.2657</ARG_OF_PERICENTER><MEAN_ANOMALY>260.8711</MEAN_ANOMALY></meanElements><tleParameters><EPHEMERIS_TYPE>0</EPHEMERIS_TYPE><CLASSIFICATION_TYPE>U</CLASSIFICATION_TYPE><NORAD_CAT_ID>25077</NORAD_CAT_ID><ELEMENT_SET_NO>999</ELEMENT_SET_NO><REV_AT_EPOCH>35664</REV_AT_EPOCH><BSTAR>.41921E-3</BSTAR><MEAN_MOTION_DOT>.1219E-4</MEAN_MOTION_DOT><MEAN_MOTION_DDOT>0</MEAN_MOTION_DDOT></tleParameters></data></segment></body></omm>
<omm id="CCSDS_OMM_VERS" version="2.0">
<header><CREATION_DATE/><ORIGINATOR/></header><body><segment><metadata><OBJECT_NAME>IRIDIUM 44 [-]</OBJECT_NAME><OBJECT_ID>1997-077B</OBJECT_ID><CENTER_NAME>EARTH</CENTER_NAME><REF_FRAME>TEME</REF_FRAME><TIME_SYSTEM>UTC</TIME_SYSTEM><MEAN_ELEMENT_THEORY>SGP4</MEAN_ELEMENT_THEORY></metadata><data><meanElements><EPOCH>2023-11-05T22:11:12.721056</EPOCH><MEAN_MOTION>14.39055620</MEAN_MOTION><ECCENTRICITY>.000315</ECCENTRICITY><INCLINATION>86.3915</INCLINATION><RA_OF_ASC_NODE>109.8528</RA_OF_ASC_NODE><ARG_OF_PERICENTER>125.1201</ARG_OF_PERICENTER><MEAN_ANOMALY>235.0293</MEAN_ANOMALY></meanElements><tleParameters><EPHEMERIS_TYPE>0</EPHEMERIS_TYPE><CLASSIFICATION_TYPE>U</CLASSIFICATION_TYPE><NORAD_CAT_ID>25078</NORAD_CAT_ID><ELEMENT_SET_NO>999</ELEMENT_SET_NO><REV_AT_EPOCH>35892</REV_AT_EPOCH><BSTAR>.47475E-3</BSTAR><MEAN_MOTION_DOT>.1485E-4</MEAN_MOTION_DOT><MEAN_MOTION_DDOT>0</MEAN_MOTION_DDOT></tleParameters></data></segment></body></omm>
<omm id="CCSDS_OMM_VERS" version="2.0">
<header><CREATION_DATE/><ORIGINATOR/></header><body><segment><metadata><OBJECT_NAME>IRIDIUM 45 [-]</OBJECT_NAME><OBJECT_ID>1997-082A</OBJECT_ID><CENTER_NAME>EARTH</CENTER_NAME><REF_FRAME>TEME</REF_FRAME><TIME_SYSTEM>UTC</TIME_SYSTEM><MEAN_ELEMENT_THEORY>SGP4</MEAN_ELEMENT_THEORY></metadata><data><meanElements><EPOCH>2023-11-06T02:03:52.979040</EPOCH><MEAN_MOTION>14.96458280</MEAN_MOTION><ECCENTRICITY>.0176047</ECCENTRICITY><INCLINATION>86.3754</INCLINATION><RA_OF_ASC_NODE>326.9042</RA_OF_ASC_NODE><ARG_OF_PERICENTER>331.3877</ARG_OF_PERICENTER><MEAN_ANOMALY>27.7775</MEAN_ANOMALY></meanElements><tleParameters><EPHEMERIS_TYPE>0</EPHEMERIS_TYPE><CLASSIFICATION_TYPE>U</CLASSIFICATION_TYPE><NORAD_CAT_ID>25104</NORAD_CAT_ID><ELEMENT_SET_NO>999</ELEMENT_SET_NO><REV_AT_EPOCH>36352</REV_AT_EPOCH><BSTAR>.18939E-2</BSTAR><MEAN_MOTION_DOT>.29591E-3</MEAN_MOTION_DOT><MEAN_MOTION_DDOT>0</MEAN_MOTION_DDOT></tleParameters></data></segment></body></omm>
<omm id="CCSDS_OMM_VERS" version="2.0">
<header><CREATION_DATE/><ORIGINATOR/></header><body><segment><metadata><OBJECT_NAME>IRIDIUM 51 [-]</OBJECT_NAME><OBJECT_ID>1998-018A</OBJECT_ID><CENTER_NAME>EARTH</CENTER_NAME><REF_FRAME>TEME</REF_FRAME><TIME_SYSTEM>UTC</TIME_SYSTEM><MEAN_ELEMENT_THEORY>SGP4</MEAN_ELEMENT_THEORY></metadata><data><meanElements><EPOCH>2023-11-06T03:42:35.283456</EPOCH><MEAN_MOTION>15.03383841</MEAN_MOTION><ECCENTRICITY>.0160701</ECCENTRICITY><INCLINATION>86.3929</INCLINATION><RA_OF_ASC_NODE>337.3404</RA_OF_ASC_NODE><ARG_OF_PERICENTER>284.3787</ARG_OF_PERICENTER><MEAN_ANOMALY>73.9655</MEAN_ANOMALY></meanElements><tleParameters><EPHEMERIS_TYPE>0</EPHEMERIS_TYPE><CLASSIFICATION_TYPE>U</CLASSIFICATION_TYPE><NORAD_CAT_ID>25262</NORAD_CAT_ID><ELEMENT_SET_NO>999</ELEMENT_SET_NO><REV_AT_EPOCH>35789</REV_AT_EPOCH><BSTAR>.19314E-2</BSTAR><MEAN_MOTION_DOT>.35038E-3</MEAN_MOTION_DOT><MEAN_MOTION_DDOT>0</MEAN_MOTION_DDOT></tleParameters></data></segment></body></omm>

</ndm>
