IRIDIUM 36 [-]          
1 24967U 97056C   23309.84993779  .00001541  00000+0  51886-3 0  9999
2 24967  86.3979  60.4215 0002248  94.7813 265.3641 14.36494065367586
IRIDIUM 39 [-]          
1 25042U 97069D   23309.92835597  .00002248  00000+0  60551-3 0  9994
2 25042  86.3879 103.5136 0020369 110.2286 250.1110 14.47472771363674
IRIDIUM 38 [-]          
1 25043U 97069E   23309.99815792  .00001382  00000+0  46057-3 0  9990
2 25043  86.3923 120.8658 0000785 170.9379 189.1832 14.36949530361571
IRIDIUM 42 [-]          
1 25077U 97077A   23309.92543444  .00001219  00000+0  41921-3 0  9995
2 25077  86.3932 126.3487 0001515  99.2657 260.8711 14.35259053356641
IRIDIUM 44 [-]          
1 25078U 97077B   23309.92445279  .00001485  00000+0  47475-3 0  9998
2 25078  86.3915 109.8528 0003150 125.1201 235.0293 14.39055620358926
IRIDIUM 45 [-]          
1 25104U 97082A   23310.08602985  .00029591  00000+0  18939-2 0  9992
2 25104  86.3754 326.9042 0176047 331.3877  27.7775 14.96458280363521
IRIDIUM 51 [-]          
1 25262U 98018A   23310.15457504  .00035038  00000+0  19314-2 0  9991
2 25262  86.3929 337.3404 0160701 284.3787  73.9655 15.03383841357897
